3D-A/Biela,e,7.2154,276.6881,192.1223,3.549449,0.1473882,0.76707043,320.7748,03/11.0/2024,2000,g 11.0,6.0
# From  76, 1135
3D-B/Biela,e,7.8793,276.1989,192.2430,3.540308,0.1479594,0.76771062,289.8489,03/11.0/2024,2000,g 11.0,6.0
# From MPEC 2023-FK0
4P/Faye,e,8.0082,192.9234,207.0932,3.828380,0.1315775,0.57676434,120.2503,03/11.0/2024,2000,g  8.0,6.0
# From  27, 116
5D/Brorsen,e,18.6240,94.9058,20.3047,3.158182,0.1756096,0.83767707,57.7549,03/11.0/2024,2000,g 10.5,6.0
# From MPEC 2022-WD2
6P/d'Arrest,e,19.5039,138.9484,178.0869,3.497389,0.1506913,0.61210032,136.4822,03/11.0/2024,2000,g  7.5,16.0
# From MPEC 2023-A50
7P/Pons-Winnecke,e,22.4094,93.2914,172.4873,3.406675,0.1567501,0.63921923,159.7631,03/11.0/2024,2000,g 10.0,6.0
# From MPEC 2022-HC2
8P/Tuttle,e,54.9597,270.1737,207.4741,5.703740,0.0723543,0.82044063,67.0023,03/11.0/2024,2000,g  8.0,8.0
# From MPEC 2024-AF0
9P/Tempel,e,10.8032,67.6260,181.8613,3.186095,0.1733070,0.50940048,126.7284,03/11.0/2024,2000,g  5.5,10.0
# From MPEC 2024-E49
10P/Tempel,e,12.0303,117.8104,195.5256,3.062559,0.1838981,0.53764560,199.2472,03/11.0/2024,2000,g  5.0,10.0
# From MPEC 2023-A50
11P/Tempel-Swift-LINEAR,e,14.4343,238.8652,168.0230,3.283708,0.1656370,0.57757943,198.7436,03/11.0/2024,2000,g 17.0,4.0
# From MPEC 2024-E49
12P/Pons-Brooks,e,74.1914,255.8560,198.9895,17.20417,0.0138119,0.95461708,359.4320,03/11.0/2024,2000,g  5.0,6.0
# From MPEC 2024-DC6
13P/Olbers,e,44.6638,85.8480,64.4137,16.88939,0.0141998,0.93040050,358.4232,03/11.0/2024,2000,g  5.0,6.0
# From MPEC 2021-F20
14P/Wolf,e,27.9191,202.0794,159.1218,4.257242,0.1122048,0.35702719,256.5933,03/11.0/2024,2000,g  5.5,12.0
# From MPEC 2022-ED3
15P/Finlay,e,6.7939,13.7369,347.8747,3.509688,0.1498999,0.71667959,145.6375,03/11.0/2024,2000,g 12.0,4.0
# From MPEC 2022-X67
16P/Brooks,e,3.0106,138.8541,245.3222,3.660600,0.1407264,0.48619722,148.8121,03/11.0/2024,2000,g  7.5,10.0
# From MPEC 2023-J29
17P/Holmes,e,19.0175,326.6264,24.6131,3.639724,0.1419389,0.42697909,158.3092,03/11.0/2024,2000,g 10.0,6.0
# From  19, 80
18D/Perrine-Mrkos,e,17.657,158.470,238.230,3.88188,0.128867,0.5894833,337.936,03/11.0/2024,2000,g  9.0,4.0
# From MPEC 2023-KD6
19P/Borrelly,e,29.3143,74.2174,351.9736,3.607546,0.1438422,0.63790055,110.4663,03/11.0/2024,2000,g  4.5,10.0
# From MPEC 2021-F20
21P/Giacobini-Zinner,e,32.0539,195.3410,172.9156,3.493591,0.1509371,0.71118367,302.7100,03/11.0/2024,2000,g 11.4,4.0
# From MPEC 2024-A43
22P/Kopff,e,4.7516,120.5871,162.9223,3.432171,0.1550068,0.55090765,112.1407,03/11.0/2024,2000,g  3.0,10.4
# From MPC 14747
23P/Brorsen-Metcalf,e,19.3506,311.5973,129.5743,16.94036,0.0141358,0.97247403,0.0000,08/23.1217/1989,2000,g 10.0,6.0
# From MPC110085
24P/Schaumasse,e,11.5060,78.3806,58.3859,4.055782,0.1206680,0.70793074,279.3376,03/11.0/2024,2000,g  6.5,14.0
# From NK 378
25D/Neujmin 2,e,2.8040,280.1122,244.7427,3.221969,0.1704206,0.55150502,287.3713,03/11.0/2024,2000,g 12.5,6.0
# From MPEC 2024-DC6
26P/Grigg-Skjellerup,e,22.4328,211.5403,2.1451,3.016020,0.1881710,0.64062126,14.4249,03/11.0/2024,2000,g 12.0,16.0
# From MPC 78188
27P/Crommelin,e,29.4265,250.7011,195.8336,9.179507,0.0354385,0.91944352,163.3553,03/11.0/2024,2000,g 12.0,8.0
# From MPEC 2024-D33
28P/Neujmin,e,14.3046,346.3710,347.4784,6.983075,0.0534114,0.77322972,58.5183,03/11.0/2024,2000,g  8.5,6.0
# From MPEC 2024-E49
29P/Schwassmann-Wachmann,e,9.3594,312.4058,51.9257,6.052730,0.0661877,0.04414201,117.4530,03/11.0/2024,2000,g  4.0,4.0
# From MPEC 2024-E49
30P/Reinmuth,e,8.0520,117.2437,9.4692,3.736704,0.1364492,0.51464732,338.2841,03/11.0/2024,2000,g  9.5,6.0
# From MPEC 2023-R20
31P/Schwassmann-Wachmann,e,4.5494,114.1100,17.8241,4.233472,0.1131512,0.19283185,193.7581,03/11.0/2024,2000,g  5.0,8.0
# From MPEC 2024-DC6
32P/Comas Sola,e,9.9207,54.5303,54.6695,4.552963,0.1014525,0.55533005,355.8808,03/11.0/2024,2000,g  6.5,8.0
# From MPEC 2023-J29
33P/Daniel,e,22.2949,66.2852,20.3841,4.092609,0.1190429,0.45220050,330.8008,03/11.0/2024,2000,g 10.0,12.0
# From  9, 314
34D/Gale,e,10.5827,57.8681,218.0585,5.013054,0.0878113,0.75791459,281.1909,03/11.0/2024,2000,g  9.0,4.0
# From  15, 452
35P/Herschel-Rigollet,e,65.106,356.556,29.053,28.5402,0.006464,0.9744185,0.000,03/17.6028/2092,2000,g  9.0,4.0
# From MPEC 2023-R20
36P/Whipple,e,9.9507,181.8409,201.1489,4.139188,0.1170392,0.26877206,161.2432,03/11.0/2024,2000,g  8.5,6.0
# From MPEC 2024-D33
37P/Forbes,e,8.9476,314.5554,330.0715,3.462912,0.1529473,0.53284632,327.2287,03/11.0/2024,2000,g 10.5,4.8
# From MPEC 2018-S50
38P/Stephan-Oterma,e,18.3960,77.8832,359.5235,11.24897,0.0261237,0.85975846,50.8121,03/11.0/2024,2000,g  3.5,12.0
# From MPEC 2024-AF0
39P/Oterma,e,1.5862,292.8261,107.8199,7.119723,0.0518811,0.19762575,11.6151,03/11.0/2024,2000,g  7.0,6.0
# From MPC100283
40P/Vaisala,e,11.5030,131.2251,49.8109,4.970105,0.0889520,0.63478263,305.7864,03/11.0/2024,2000,g  5.5,12.0
# From MPEC 2023-SQ0
41P/Tuttle-Giacobini-Kresak,e,9.2173,140.9781,62.2376,3.088415,0.1815936,0.65963337,98.8564,03/11.0/2024,2000,g 10.0,16.0
# From MPC 94283
42P/Neujmin,e,3.9893,150.1618,147.1937,4.875967,0.0915404,0.58414000,298.2116,03/11.0/2024,2000,g 13.0,6.0
# From MPEC 2024-A43
43P/Wolf-Harrington,e,9.3339,243.9979,224.0117,4.323640,0.1096301,0.43549066,303.8259,03/11.0/2024,2000,g  8.0,6.0
# From MPEC 2024-C04
44P/Reinmuth,e,5.8968,286.4268,58.0199,3.687737,0.1391760,0.42710138,95.7823,03/11.0/2024,2000,g  8.3,6.0
# From MPEC 2022-O01
45P/Honda-Mrkos-Pajdusakova,e,4.3234,87.6936,327.9287,3.056438,0.1844509,0.81774502,126.1433,03/11.0/2024,2000,g 13.5,8.0
# From MPEC 2024-D33
46P/Wirtanen,e,11.7472,82.1629,356.3254,3.089940,0.1814592,0.65862904,347.7904,03/11.0/2024,2000,g 14.0,6.0
# From MPEC 2023-J29
47P/Ashbrook-Jackson,e,13.0377,356.9034,357.8433,4.120269,0.1178462,0.31856808,289.7914,03/11.0/2024,2000,g  1.0,11.2
# From MPEC 2023-FK0
48P/Johnson,e,12.2004,110.0686,216.7674,3.500834,0.1504689,0.42686564,306.3419,03/11.0/2024,2000,g 10.0,6.0
# From MPEC 2023-XP6
49P/Arend-Rigaux,e,19.0582,118.7936,332.9348,3.568941,0.1461824,0.59887471,302.1615,03/11.0/2024,2000,g 11.3,4.4
# From MPEC 2024-BE0
50P/Arend,e,19.1001,355.1720,49.3506,4.089317,0.1191867,0.52992024,352.5155,03/11.0/2024,2000,g  9.5,6.0
# From MPEC 2023-J29
51P/Harrington,e,5.4265,83.6608,269.2395,3.705446,0.1381794,0.54316882,72.7990,03/11.0/2024,2000,g 10.0,8.0
# From NK 3014
51P-A/Harrington,e,5.4268,269.2367,83.6445,3.706728,0.1381077,0.54335766,72.4052,03/11.0/2024,2000,g 10.0,8.0
# From MPEC 2023-J29
51P-D/Harrington,e,5.4270,83.6490,269.2577,3.705802,0.1381595,0.54329855,72.7300,03/11.0/2024,2000,g 16.0,8.0
# From MPEC 2023-XP6
52P/Harrington-Abell,e,10.2324,336.7959,139.5636,3.862815,0.1298220,0.54067053,115.2215,03/11.0/2024,2000,g 13.5,6.0
# From MPEC 2023-TM6
53P/VanBiesbroeck,e,6.6049,148.8420,134.4306,5.435649,0.0777727,0.54977722,223.7428,03/11.0/2024,2000,g  7.7,4.8
# From MPC 89011
54P/de Vico-Swift-NEAT,e,6.0642,358.8484,1.9173,3.786071,0.1337892,0.42633092,336.3329,03/11.0/2024,2000,g  9.0,4.0
# From MPC 31070
55P/Tempel-Tuttle,e,162.4971,235.4181,172.4596,10.34853,0.0296065,0.90564225,282.2077,03/11.0/2024,2000,g  9.0,4.0
# From MPEC 2023-TM6
56P/Slaughter-Burnham,e,8.1565,345.9417,44.1358,5.064506,0.0864766,0.50863709,240.8567,03/11.0/2024,2000,g  8.5,6.0
# From MPEC 2024-DC6
57P/duToit-Neujmin-Delporte,e,2.8524,188.7752,115.0929,3.442366,0.1543187,0.50077104,135.2071,03/11.0/2024,2000,g 12.5,6.0
# From MPEC 2024-A43
58P/Jackson-Neujmin,e,13.1000,159.0640,200.5606,4.089500,0.1191787,0.66232342,164.8684,03/11.0/2024,2000,g 15.5,6.0
# From MPEC 2023-A50
59P/Kearns-Kwee,e,9.3496,312.7525,127.5844,4.481253,0.1038975,0.47675087,207.7612,03/11.0/2024,2000,g  7.0,6.0
# From MPEC 2021-F20
60P/Tsuchinshan,e,3.5812,267.4390,216.9509,3.527252,0.1487816,0.53367407,286.0896,03/11.0/2024,2000,g 11.5,6.0
# From MPEC 2024-D33
61P/Shajn-Schaldach,e,5.9992,162.9630,221.6578,3.688995,0.1391048,0.42355592,70.1485,03/11.0/2024,2000,g  6.0,10.0
# From MPEC 2024-E49
62P/Tsuchinshan,e,4.7377,68.6678,47.3014,3.369557,0.1593473,0.62459319,12.2515,03/11.0/2024,2000,g  8.0,10.0
# From MPC 84320
63P/Wild,e,19.6626,357.8914,168.8886,5.630636,0.0737680,0.65038644,297.4535,03/11.0/2024,2000,g 10.5,6.0
# From MPEC 2024-A43
64P/Swift-Gehrels,e,8.9507,299.8306,97.2625,4.452291,0.1049129,0.68874448,204.7117,03/11.0/2024,2000,g  9.5,12.0
# From MPEC 2024-E49
65P/Gunn,e,9.1759,61.9767,213.7685,3.890927,0.1284176,0.24814296,300.5597,03/11.0/2024,2000,g  5.0,6.0
# From MPEC 2021-F20
66P/duToit,e,18.6406,21.7932,257.4674,6.070840,0.0658917,0.78526416,140.0878,03/11.0/2024,2000,g 15.0,4.0
# From MPEC 2024-C04
67P/Churyumov-Gerasimenko,e,3.8711,36.3287,22.1709,3.458054,0.1532698,0.64999866,131.7535,03/11.0/2024,2000,g 11.0,4.0
# From MPEC 2023-HD1
68P/Klemola,e,11.1075,175.0651,153.2632,4.961616,0.0891804,0.63649315,141.3374,03/11.0/2024,2000,g 12.6,4.0
# From MPEC 2024-C04
69P/Taylor,e,22.0571,104.8044,343.4242,3.882650,0.1288284,0.41442322,234.2218,03/11.0/2024,2000,g  9.5,12.0
# From MPEC 2023-VM5
70P/Kojima,e,6.6001,119.2406,1.7762,3.676427,0.1398187,0.45431798,120.0607,03/11.0/2024,2000,g 11.0,6.0
# From MPEC 2024-A43
71P/Clark,e,9.4404,59.3797,209.2495,3.144045,0.1767954,0.49395460,73.0030,03/11.0/2024,2000,g  9.8,6.0
# From MPEC 2023-VM5
72P/Denning-Fujikawa,e,10.9485,26.6993,346.7361,4.306938,0.1102684,0.81861533,29.6886,03/11.0/2024,2000,g 17.5,10.0
# From MPEC 2023-RF3
73P/Schwassmann-Wachmann,e,11.2909,69.5173,199.3756,3.088662,0.1815718,0.68827761,102.0474,03/11.0/2024,2000,g 11.5,6.0
# From NK 1613
73P-B/Schwassmann-Wachmann B,e,11.2022,199.2944,69.5694,3.090014,0.1814527,0.68847294,101.2570,03/11.0/2024,2000,g  9.0,4.0
# From NK 2710
73P-C/Schwassmann-Wachmann,e,11.1972,199.3324,69.5583,3.088668,0.1815713,0.68821579,102.0628,03/11.0/2024,2000,g  9.0,4.0
# From NK 934
73P-E/Schwassmann-Wachmann,e,11.2081,199.2636,69.5858,3.093827,0.1811173,0.68896941,99.4751,03/11.0/2024,2000,g  9.0,4.0
# From MPC 56796
